ONEWEB-0403             
1 50483U 21132Q   25358.52581713  .00000082  00000+0  17400-3 0  9998
2 50483  87.9175  10.1370 0001781  95.0080 265.1255 13.18686138198571
ONEWEB-0404             
1 50484U 21132R   25358.91708566  .00000524  00000+0  14427-2 0  9995
2 50484  87.8842  55.7733 0001918 112.4627 247.6704 13.11416258192859
ONEWEB-0405             
1 50485U 21132S   25358.76829237 -.00000003  00000+0 -40918-4 0  9998
2 50485  87.9175  10.0730 0002072  90.3903 269.7467 13.18685959199002
ONEWEB-0406             
1 50486U 21132T   25358.75839195  .00000048  00000+0  89681-4 0  9999
2 50486  87.9177  10.0999 0001574 108.0268 252.1036 13.18686240198639
ONEWEB-0407             
1 50487U 21132U   25358.52416235  .00000072  00000+0  14896-3 0  9993
2 50487  87.9174  10.1305 0001845  85.8354 274.2989 13.18686557198541
ONEWEB-0409             
1 50488U 21132V   25358.91538922  .00000423  00000+0  11580-2 0  9991
2 50488  87.8860  55.7444 0001706 114.0792 246.0515 13.11415918192741
ONEWEB-0412             
1 50489U 21132W   25358.74023565  .00000088  00000+0  19003-3 0  9991
2 50489  87.9175  10.1003 0002089  87.6014 272.5357 13.18687752198664
ONEWEB-0413             
1 50490U 21132X   25358.74520055  .00000062  00000+0  12421-3 0  9998
2 50490  87.9165  10.1109 0001993  83.8660 276.2699 13.18685237198600
